ORBCOMM FM24            
1 25478U 98053D   24117.28684687  .00003569  00000+0  12754-2 0  9998
2 25478  45.0070  81.9691 0002840 304.9251  55.1330 14.35584959337481
ORBCOMM FM25            
1 25479U 98053E   24117.60087627  .00003490  00000+0  12486-2 0  9991
2 25479  45.0067  78.7286 0005364 317.3930  42.6501 14.35564927337820
ORBCOMM FM26            
1 25480U 98053F   24117.60204865  .00003084  00000+0  11211-2 0  9992
2 25480  45.0065  72.7834 0007206 335.4960  24.5544 14.35022753337769
ORBCOMM FM27            
1 25481U 98053G   24117.58885498  .00003651  00000+0  13044-2 0  9993
2 25481  45.0051  79.0508 0001473 317.1793  42.8939 14.35550668337755
ORBCOMM FM28            
1 25482U 98053H   24117.44048796  .00003019  00000+0  10775-2 0  9997
2 25482  45.0071  18.2663 0004606   6.8021 353.2888 14.35994014338404
ORBCOMM FM30            
1 25980U 99065A   24117.49569573  .00003293  00000+0  11904-2 0  9999
2 25980  45.0307 258.8019 0005280  92.3327 267.8125 14.35167337274542
ORBCOMM FM31            
1 25981U 99065B   24117.46124481  .00002926  00000+0  10635-2 0  9994
2 25981  45.0221 252.6664 0003111 130.9679 229.1438 14.35168288274090
ORBCOMM FM32            
1 25982U 99065C   24117.50234642  .00003112  00000+0  11510-2 0  9992
2 25982  45.0147 266.1762 0005714 121.3804 238.7603 14.34142956274736
